{
  "type": "FeatureCollection",
  "features": [
    {
      "type": "Feature",
      "properties": {
        "norad_id": 66390,
        "name": "STARLINK-35665",
        "group": "last-30-days",
        "lat": 11.536327330942745,
        "lon": -66.58213482818815,
        "alt_km": 416.64516500094396,
        "timestamp": "2025-12-08T08:58:59.555375+00:00",
        "meta_object_name": "STARLINK-35665",
        "meta_object_id": "2025-257L",
        "meta_epoch": "2025-12-07T06:36:21.781440",
        "meta_mean_motion": 15.49388839,
        "meta_eccentricity": 0.00013095,
        "meta_inclination": 53.1594,
        "meta_ra_of_asc_node": 289.8739,
        "meta_arg_of_pericenter": 94.4645,
        "meta_mean_anomaly": 265.6513,
        "meta_ephemeris_type": 0,
        "meta_classification_type": "U",
        "meta_norad_cat_id": 66390,
        "meta_element_set_no": 999,
        "meta_rev_at_epoch": 563,
        "meta_bstar": 0.00291204,
        "meta_mean_motion_dot": 0.00165447,
        "meta_mean_motion_ddot": 0,
        "tle_line1": "1 66390U 25257L   25341.27525210  .00165447  00000+0  29120-2 0  9996",
        "tle_line2": "2 66390  53.1594 289.8739 0001309  94.4645 265.6513 15.49388839  5634"
      },
      "geometry": {
        "type": "Point",
        "coordinates": [
          -66.58213482818815,
          11.536327330942745
        ]
      }
    },
    {
      "type": "Feature",
      "properties": {
        "norad_id": 66391,
        "name": "STARLINK-35656",
        "group": "last-30-days",
        "lat": -16.75435397683406,
        "lon": 117.996732822935,
        "alt_km": 449.76057641757507,
        "timestamp": "2025-12-08T08:58:59.555386+00:00",
        "meta_object_name": "STARLINK-35656",
        "meta_object_id": "2025-257M",
        "meta_epoch": "2025-12-07T21:12:31.402656",
        "meta_mean_motion": 15.39661117,
        "meta_eccentricity": 0.00014743,
        "meta_inclination": 53.1595,
        "meta_ra_of_asc_node": 287.265,
        "meta_arg_of_pericenter": 108.6296,
        "meta_mean_anomaly": 251.4869,
        "meta_ephemeris_type": 0,
        "meta_classification_type": "U",
        "meta_norad_cat_id": 66391,
        "meta_element_set_no": 999,
        "meta_rev_at_epoch": 572,
        "meta_bstar": 0.0013250314,
        "meta_mean_motion_dot": 0.00053042,
        "meta_mean_motion_ddot": 0,
        "tle_line1": "1 66391U 25257M   25341.88369679  .00053042  00000+0  13250-2 0  9993",
        "tle_line2": "2 66391  53.1595 287.2650 0001474 108.6296 251.4869 15.39661117  5722"
      },
      "geometry": {
        "type": "Point",
        "coordinates": [
          117.996732822935,
          -16.75435397683406
        ]
      }
    },
    {
      "type": "Feature",
      "properties": {
        "norad_id": 66392,
        "name": "STARLINK-35671",
        "group": "last-30-days",
        "lat": 2.393451833555172,
        "lon": 103.21838956490457,
        "alt_km": 447.71107665080217,
        "timestamp": "2025-12-08T08:58:59.555397+00:00",
        "meta_object_name": "STARLINK-35671",
        "meta_object_id": "2025-257N",
        "meta_epoch": "2025-12-08T00:00:04.000320",
        "meta_mean_motion": 15.39601183,
        "meta_eccentricity": 0.00016561,
        "meta_inclination": 53.1598,
        "meta_ra_of_asc_node": 286.7781,
        "meta_arg_of_pericenter": 91.4395,
        "meta_mean_anomaly": 169.9413,
        "meta_ephemeris_type": 0,
        "meta_classification_type": "U",
        "meta_norad_cat_id": 66392,
        "meta_element_set_no": 999,
        "meta_rev_at_epoch": 573,
        "meta_bstar": 0.00054624833,
        "meta_mean_motion_dot": 0.00021498,
        "meta_mean_motion_ddot": 0,
        "tle_line1": "1 66392U 25257N   25342.00004630  .00021498  00000+0  54625-3 0  9994",
        "tle_line2": "2 66392  53.1598 286.7781 0001656  91.4395 169.9413 15.39601183  5732"
      },
      "geometry": {
        "type": "Point",
        "coordinates": [
          103.21838956490457,
          2.393451833555172
        ]
      }
    },
    {
      "type": "Feature",
      "properties": {
        "norad_id": 66393,
        "name": "STARLINK-35652",
        "group": "last-30-days",
        "lat": -35.594118446747125,
        "lon": 137.3705019962412,
        "alt_km": 452.0420841591913,
        "timestamp": "2025-12-08T08:58:59.555408+00:00",
        "meta_object_name": "STARLINK-35652",
        "meta_object_id": "2025-257P",
        "meta_epoch": "2025-12-08T00:00:04.000320",
        "meta_mean_motion": 15.39601267,
        "meta_eccentricity": 0.00013102,
        "meta_inclination": 53.1587,
        "meta_ra_of_asc_node": 286.6784,
        "meta_arg_of_pericenter": 91.0496,
        "meta_mean_anomaly": 220.0346,
        "meta_ephemeris_type": 0,
        "meta_classification_type": "U",
        "meta_norad_cat_id": 66393,
        "meta_element_set_no": 999,
        "meta_rev_at_epoch": 573,
        "meta_bstar": 0.00040159127,
        "meta_mean_motion_dot": 0.00015687,
        "meta_mean_motion_ddot": 0,
        "tle_line1": "1 66393U 25257P   25342.00004630  .00015687  00000+0  40159-3 0  9995",
        "tle_line2": "2 66393  53.1587 286.6784 0001310  91.0496 220.0346 15.39601267  5735"
      },
      "geometry": {
        "type": "Point",
        "coordinates": [
          137.3705019962412,
          -35.594118446747125
        ]
      }
    },
    {
      "type": "Feature",
      "properties": {
        "norad_id": 66394,
        "name": "STARLINK-35672",
        "group": "last-30-days",
        "lat": -36.826695852605525,
        "lon": 139.0641675313366,
        "alt_km": 452.2170163444662,
        "timestamp": "2025-12-08T08:58:59.555420+00:00",
        "meta_object_name": "STARLINK-35672",
        "meta_object_id": "2025-257Q",
        "meta_epoch": "2025-12-08T00:00:04.000320",
        "meta_mean_motion": 15.39579742,
        "meta_eccentricity": 0.00013083,
        "meta_inclination": 53.159,
        "meta_ra_of_asc_node": 286.6737,
        "meta_arg_of_pericenter": 87.0515,
        "meta_mean_anomaly": 225.9054,
        "meta_ephemeris_type": 0,
        "meta_classification_type": "U",
        "meta_norad_cat_id": 66394,
        "meta_element_set_no": 999,
        "meta_rev_at_epoch": 573,
        "meta_bstar": 0.00054757705,
        "meta_mean_motion_dot": 0.00021536,
        "meta_mean_motion_ddot": 0,
        "tle_line1": "1 66394U 25257Q   25342.00004630  .00021536  00000+0  54758-3 0  9996",
        "tle_line2": "2 66394  53.1590 286.6737 0001308  87.0515 225.9054 15.39579742  5734"
      },
      "geometry": {
        "type": "Point",
        "coordinates": [
          139.0641675313366,
          -36.826695852605525
        ]
      }
    },
    {
      "type": "Feature",
      "properties": {
        "norad_id": 66395,
        "name": "STARLINK-35681",
        "group": "last-30-days",
        "lat": -49.69298686297169,
        "lon": 166.97193267336232,
        "alt_km": 452.6133151892327,
        "timestamp": "2025-12-08T08:58:59.555431+00:00",
        "meta_object_name": "STARLINK-35681",
        "meta_object_id": "2025-257R",
        "meta_epoch": "2025-12-08T00:00:04.000320",
        "meta_mean_motion": 15.39600873,
        "meta_eccentricity": 0.00010743,
        "meta_inclination": 53.1593,
        "meta_ra_of_asc_node": 286.627,
        "meta_arg_of_pericenter": 103.0473,
        "meta_mean_anomaly": 233.7946,
        "meta_ephemeris_type": 0,
        "meta_classification_type": "U",
        "meta_norad_cat_id": 66395,
        "meta_element_set_no": 999,
        "meta_rev_at_epoch": 557,
        "meta_bstar": 0.00035929369,
        "meta_mean_motion_dot": 0.00013989,
        "meta_mean_motion_ddot": 0,
        "tle_line1": "1 66395U 25257R   25342.00004630  .00013989  00000+0  35929-3 0  9999",
        "tle_line2": "2 66395  53.1593 286.6270 0001074 103.0473 233.7946 15.39600873  5571"
      },
      "geometry": {
        "type": "Point",
        "coordinates": [
          166.97193267336232,
          -49.69298686297169
        ]
      }
    },
    {
      "type": "Feature",
      "properties": {
        "norad_id": 66396,
        "name": "STARLINK-35669",
        "group": "last-30-days",
        "lat": -50.34635238700863,
        "lon": 169.62099490271135,
        "alt_km": 452.59437438273017,
        "timestamp": "2025-12-08T08:58:59.555444+00:00",
        "meta_object_name": "STARLINK-35669",
        "meta_object_id": "2025-257S",
        "meta_epoch": "2025-12-08T00:00:04.000320",
        "meta_mean_motion": 15.39599693,
        "meta_eccentricity": 9.879e-05,
        "meta_inclination": 53.1593,
        "meta_ra_of_asc_node": 286.6224,
        "meta_arg_of_pericenter": 103.4391,
        "meta_mean_anomaly": 235.2344,
        "meta_ephemeris_type": 0,
        "meta_classification_type": "U",
        "meta_norad_cat_id": 66396,
        "meta_element_set_no": 999,
        "meta_rev_at_epoch": 573,
        "meta_bstar": 0.00035279607,
        "meta_mean_motion_dot": 0.00013728,
        "meta_mean_motion_ddot": 0,
        "tle_line1": "1 66396U 25257S   25342.00004630  .00013728  00000+0  35280-3 0  9991",
        "tle_line2": "2 66396  53.1593 286.6224 0000987 103.4391 235.2344 15.39599693  5730"
      },
      "geometry": {
        "type": "Point",
        "coordinates": [
          169.62099490271135,
          -50.34635238700863
        ]
      }
    }
  ]
}